#cP2010  7 26  0  0  0.00000000    2880 PHASE IGS08 KIN AIUB
## 1594  86400.00000000    30.00000000 55403 0.0000000000000
+    1   L09  0  0  0  0  0  0  0  0  0  0  0  0  0  0  0  0
+          0  0  0  0  0  0  0  0  0  0  0  0  0  0  0  0  0
+          0  0  0  0  0  0  0  0  0  0  0  0  0  0  0  0  0
+          0  0  0  0  0  0  0  0  0  0  0  0  0  0  0  0  0
+          0  0  0  0  0  0  0  0  0  0  0  0  0  0  0  0  0
++         0  0  0  0  0  0  0  0  0  0  0  0  0  0  0  0  0
++         0  0  0  0  0  0  0  0  0  0  0  0  0  0  0  0  0
++         0  0  0  0  0  0  0  0  0  0  0  0  0  0  0  0  0
++         0  0  0  0  0  0  0  0  0  0  0  0  0  0  0  0  0
++         0  0  0  0  0  0  0  0  0  0  0  0  0  0  0  0  0
%c L  cc GPS ccc cccc cccc cccc cccc ccccc ccccc ccccc ccccc
%c cc cc ccc ccc cccc cccc cccc cccc ccccc ccccc ccccc ccccc
%f  1.2500000  1.025000000  0.00000000000  0.000000000000000
%f  0.0000000  0.000000000  0.00000000000  0.000000000000000
%i    0    0    0    0      0      0      0      0         0
%i    0    0    0    0      0      0      0      0         0
/* LEOPOD_102070_GRCA: Kinematic orbit generation           
/*                                                          
/*                                                          
/*                                                          
*  2010  7 26 10 51  0.00000000
PL09  -1873.100919   -646.947034  -6548.306405      0.002039
*  2010  7 26 10 51 30.00000000
PL09  -2075.705481   -726.158730  -6478.220157      0.002057
*  2010  7 26 10 52  0.00000000
PL09  -2276.348956   -803.682285  -6400.891898      0.002024
*  2010  7 26 10 52 30.00000000
PL09  -2474.800402   -879.440502  -6316.406081      0.002044
*  2010  7 26 10 53  0.00000000
PL09  -2670.830789   -953.359071  -6224.855054      0.002014
*  2010  7 26 10 53 30.00000000
PL09  -2864.213317  -1025.366670  -6126.339120      0.002005
*  2010  7 26 10 54  0.00000000
PL09  -3054.723637  -1095.395016  -6020.966322      0.001921
*  2010  7 26 10 54 30.00000000
PL09  -3242.140167  -1163.378963  -5908.852501      0.001867
*  2010  7 26 10 55  0.00000000
PL09  -3426.244303  -1229.256530  -5790.121028      0.001858
*  2010  7 26 10 55 30.00000000
PL09  -3606.820700  -1292.968964  -5664.902709      0.001885
*  2010  7 26 10 56  0.00000000
PL09  -3783.657564  -1354.460807  -5533.335707      0.001923
*  2010  7 26 10 56 30.00000000
PL09  -3956.546837  -1413.679915  -5395.565324      0.001902
*  2010  7 26 10 57  0.00000000
PL09  -4125.284516  -1470.577545  -5251.743973      0.001899
*  2010  7 26 10 57 30.00000000
PL09  -4289.670870  -1525.108367  -5102.030900      0.001912
*  2010  7 26 10 58  0.00000000
PL09  -4449.510691  -1577.230505  -4946.592086      0.001959
*  2010  7 26 10 58 30.00000000
PL09  -4604.613519  -1626.905570  -4785.600035      0.001981
*  2010  7 26 10 59  0.00000000
PL09  -4754.793907  -1674.098679  -4619.233637      0.001997
*  2010  7 26 10 59 30.00000000
PL09  -4899.871633  -1718.778485  -4447.677935      0.001985
*  2010  7 26 11  0  0.00000000
PL09  -5039.671922  -1760.917192  -4271.123959      0.001894
*  2010  7 26 11  0 30.00000000
PL09  -5174.025777  -1800.490584  -4089.768548      0.001948
*  2010  7 26 11  1  0.00000000
PL09  -5302.769985  -1837.477980  -3903.814024      0.001913
*  2010  7 26 11  1 30.00000000
PL09  -5425.747559  -1871.862308  -3713.468116      0.001922
*  2010  7 26 11  2  0.00000000
PL09  -5542.807784  -1903.630046  -3518.943616      0.001934
*  2010  7 26 11  2 30.00000000
PL09  -5653.806490  -1932.771249  -3320.458209      0.001977
*  2010  7 26 11  3  0.00000000
PL09  -5758.606187  -1959.279501  -3118.234172      0.001939
*  2010  7 26 11  3 30.00000000
PL09  -5857.076356  -1983.151958  -2912.498204      0.001938
*  2010  7 26 11  4  0.00000000
PL09  -5949.093488  -2004.389257  -2703.481078      0.001928
*  2010  7 26 11  4 30.00000000
PL09  -6034.541359  -2022.995531  -2491.417468      0.001934
*  2010  7 26 11  5  0.00000000
PL09  -6113.311124  -2038.978369  -2276.545621      0.001941
*  2010  7 26 11  5 30.00000000
PL09  -6185.301487  -2052.348762  -2059.107117      0.001911
*  2010  7 26 11  6  0.00000000
PL09  -6250.418895  -2063.121087  -1839.346578      0.001922
*  2010  7 26 11  6 30.00000000
PL09  -6308.577578  -2071.313052  -1617.511371      0.001904
*  2010  7 26 11  7  0.00000000
PL09  -6359.699767  -2076.945627  -1393.851354      0.001911
*  2010  7 26 11  7 30.00000000
PL09  -6403.715717  -2080.043030  -1168.618561      0.001922
*  2010  7 26 11  8  0.00000000
PL09  -6440.563865  -2080.632612   -942.066906      0.001934
*  2010  7 26 11  8 30.00000000
PL09  -6470.190898  -2078.744858   -714.451912      0.001912
*  2010  7 26 11  9  0.00000000
PL09  -6492.551885  -2074.413255   -486.030389      0.001908
*  2010  7 26 11  9 30.00000000
PL09  -6507.610274  -2067.674272   -257.060136      0.001912
*  2010  7 26 11 10  0.00000000
PL09  -6515.337993  -2058.567245    -27.799633      0.001906
*  2010  7 26 11 10 30.00000000
PL09  -6515.715512  -2047.134320    201.492248      0.001901
*  2010  7 26 11 11  0.00000000
PL09  -6508.731853  -2033.420350    430.556574      0.001926
*  2010  7 26 11 11 30.00000000
PL09  -6494.384621  -2017.472816    659.134629      0.001961
*  2010  7 26 11 12  0.00000000
PL09  -6472.680027  -1999.341742    886.968240      0.001991
*  2010  7 26 11 12 30.00000000
PL09  -6443.632882  -1979.079587   1113.800070      0.001965
*  2010  7 26 11 13  0.00000000
PL09  -6407.266636  -1956.741166   1339.373957      0.001960
*  2010  7 26 11 13 30.00000000
PL09  -6363.613270  -1932.383521   1563.435168      0.001953
*  2010  7 26 11 14  0.00000000
PL09  -6312.713355  -1906.065846   1785.730738      0.001968
*  2010  7 26 11 14 30.00000000
PL09  -6254.615915  -1877.849386   2006.009742      0.001961
*  2010  7 26 11 15  0.00000000
PL09  -6189.378452  -1847.797291   2224.023621      0.001966
*  2010  7 26 11 15 30.00000000
PL09  -6117.066804  -1815.974552   2439.526383      0.001875
*  2010  7 26 11 16  0.00000000
PL09  -6037.755208  -1782.447839   2652.275034      0.001849
*  2010  7 26 11 16 30.00000000
PL09  -5951.526074  -1747.285425   2862.029734      0.001831
*  2010  7 26 11 17  0.00000000
PL09  -5858.469962  -1710.557051   3068.554129      0.001839
*  2010  7 26 11 17 30.00000000
PL09  -5758.685460  -1672.333832   3271.615636      0.001831
*  2010  7 26 11 18  0.00000000
PL09  -5652.279073  -1632.688118   3470.985715      0.001845
*  2010  7 26 11 18 30.00000000
PL09  -5539.365056  -1591.693364   3666.440122      0.001829
*  2010  7 26 11 19  0.00000000
PL09  -5420.065329  -1549.424039   3857.759169      0.001859
*  2010  7 26 11 19 30.00000000
PL09  -5294.509268  -1505.955474   4044.727943      0.001900
*  2010  7 26 11 20  0.00000000
PL09  -5162.833579  -1461.363759   4227.136555      0.001903
*  2010  7 26 11 20 30.00000000
PL09  -5025.182164  -1415.725626   4404.780417      0.001885
*  2010  7 26 11 21  0.00000000
PL09  -4881.705914  -1369.118317   4577.460405      0.001909
*  2010  7 26 11 21 30.00000000
PL09  -4732.562526  -1321.619470   4744.983101      0.001910
*  2010  7 26 11 22  0.00000000
PL09  -4577.916363  -1273.307007   4907.161027      0.001898
*  2010  7 26 11 22 30.00000000
PL09  -4417.938213  -1224.259008   5063.812824      0.001860
*  2010  7 26 11 23  0.00000000
PL09  -4252.805127  -1174.553599   5214.763466      0.001846
*  2010  7 26 11 23 30.00000000
PL09  -4082.700205  -1124.268846   5359.844466      0.001873
*  2010  7 26 11 24  0.00000000
PL09  -3907.812342  -1073.482604   5498.894026      0.001883
*  2010  7 26 11 24 30.00000000
PL09  -3728.336028  -1022.272427   5631.757233      0.001862
*  2010  7 26 11 25  0.00000000
PL09  -3544.471157   -970.715468   5758.286250      0.001886
*  2010  7 26 11 25 30.00000000
PL09  -3356.422741   -918.888335   5878.340376      0.001875
*  2010  7 26 11 26  0.00000000
PL09  -3164.400702   -866.867013   5991.786333      0.001879
*  2010  7 26 11 26 30.00000000
PL09  -2968.619592   -814.726728   6098.498277      0.001843
*  2010  7 26 11 27  0.00000000
PL09  -2769.298399   -762.541869   6198.358055      0.001867
*  2010  7 26 11 27 30.00000000
PL09  -2566.660223   -710.385869   6291.255162      0.001848
*  2010  7 26 11 28  0.00000000
PL09  -2360.932069   -658.331097   6377.086993      0.001794
*  2010  7 26 11 28 30.00000000
PL09  -2152.344593   -606.448794   6455.758942      0.001824
*  2010  7 26 11 29  0.00000000
PL09  -1941.131793   -554.808939   6527.184358      0.001867
*  2010  7 26 11 29 30.00000000
PL09  -1727.530761   -503.480179   6591.284711      0.001871
*  2010  7 26 11 30  0.00000000
PL09  -1511.781439   -452.529761   6647.989724      0.001886
*  2010  7 26 11 30 30.00000000
PL09  -1294.126330   -402.023407   6697.237366      0.001854
*  2010  7 26 11 31  0.00000000
PL09  -1074.810225   -352.025276   6738.973961      0.001859
*  2010  7 26 11 31 30.00000000
PL09   -854.079920   -302.597844   6773.154169      0.001852
*  2010  7 26 11 32  0.00000000
PL09   -632.183961   -253.801859   6799.741075      0.001863
*  2010  7 26 11 32 30.00000000
PL09   -409.372355   -205.696252   6818.706221      0.001846
*  2010  7 26 11 33  0.00000000
PL09   -185.896296   -158.338060   6830.029669      0.001896
*  2010  7 26 11 33 30.00000000
PL09     37.992125   -111.782378   6833.699865      0.001867
*  2010  7 26 11 34  0.00000000
PL09    262.040200    -66.082275   6829.713863      0.001835
*  2010  7 26 11 34 30.00000000
PL09    485.994889    -21.288763   6818.077227      0.001886
*  2010  7 26 11 35  0.00000000
PL09    709.603100     22.549284   6798.803805      0.001732
*  2010  7 26 11 35 30.00000000
PL09    932.611937     65.385193   6771.916354      0.001933
*  2010  7 26 11 36  0.00000000
PL09   1154.769068    107.174489   6737.445472      0.001860
*  2010  7 26 11 36 30.00000000
PL09   1375.822914    147.874984   6695.430664      0.001874
*  2010  7 26 11 37  0.00000000
PL09   1595.523010    187.446813   6645.919557      0.001876
